ONEWEB-0598             
1 55154U 23004Q   26098.27245167 -.00000675  00000+0 -19413-2 0  9997
2 55154  87.8960  34.9647 0002314  84.1293 276.0099 13.11390642156735
ONEWEB-0599             
1 55155U 23004R   26098.16362857  .00000090  00000+0  19774-3 0  9992
2 55155  87.9182  19.7727 0002054  79.3814 280.7549 13.17651032158260
ONEWEB-0614             
1 55156U 23004S   26098.26733601  .00000541  00000+0  14917-2 0  9997
2 55156  87.8907  34.9770 0001635  81.3951 278.7362 13.11416951156677
ONEWEB-0616             
1 55157U 23004T   26098.20581196  .00000090  00000+0  19944-3 0  9997
2 55157  87.9183  19.7663 0002705  89.3676 270.7765 13.17651846158488
ONEWEB-0617             
1 55158U 23004U   26098.25546806  .00000142  00000+0  36522-3 0  9991
2 55158  87.8923  34.9658 0001410  75.6745 284.4539 13.11419106156697
ONEWEB-0618             
1 55159U 23004V   26098.27461059  .00006129  00000+0  34970-3 0  9996
2 55159  86.9133 205.9829 0012497 182.2147 177.9040 15.12505622171691
ONEWEB-0619             
1 55160U 23004W   26098.23787208  .00000060  00000+0  12143-3 0  9997
2 55160  87.9192  19.7351 0001695  93.3954 266.7371 13.17647768158382
ONEWEB-0620             
1 55161U 23004X   26098.25037554 -.00000101  00000+0 -32017-3 0  9992
2 55161  87.8911  34.9800 0001875  69.8427 290.2902 13.11418340156669
ONEWEB-0621             
1 55162U 23004Y   26098.20120986  .00000448  00000+0  12274-2 0  9994
2 55162  87.8918  34.9724 0001645  82.7463 277.3852 13.11414130156631
ONEWEB-0622             
1 55163U 23004Z   26098.20629850  .00000302  00000+0  81764-3 0  9999
2 55163  87.8916  34.9732 0001197  62.6637 297.4613 13.11415267156620
ONEWEB-0623             
1 55164U 23004AA  26098.23282480  .00000077  00000+0  16509-3 0  9991
2 55164  87.9184  19.7748 0001079  91.5216 268.6040 13.17651850158374
ONEWEB-0624             
1 55165U 23004AB  26098.15875360 -.00000185  00000+0 -54657-3 0  9996
2 55165  87.9011   4.5059 0001591  82.3808 277.7502 13.12926314158880
ONEWEB-0625             
1 55166U 23004AC  26098.22268317  .00000073  00000+0  15418-3 0  9999
2 55166  87.9181  19.7706 0001938  82.8554 277.2798 13.17647548158363
ONEWEB-0626             
1 55167U 23004AD  26098.21257643  .00000115  00000+0  26194-3 0  9999
2 55167  87.9182  19.7726 0002033  66.7867 293.3479 13.17650399158365
ONEWEB-0627             
1 55168U 23004AE  26098.20074538  .00000083  00000+0  18108-3 0  9999
2 55168  87.9185  19.7750 0001327  86.0778 274.0506 13.17648713158361
ONEWEB-0628             
1 55169U 23004AF  26098.19059102  .00000305  00000+0  81155-3 0  9997
2 55169  87.9013   4.5542 0001227  96.7450 263.3818 13.12442433158854
