[{"OBJECT_NAME":"ONEWEB-0598","OBJECT_ID":"2023-004Q","EPOCH":"2026-04-08T06:32:19.824288","MEAN_MOTION":13.11390642,"ECCENTRICITY":0.0002314,"INCLINATION":87.896,"RA_OF_ASC_NODE":34.9647,"ARG_OF_PERICENTER":84.1293,"MEAN_ANOMALY":276.0099,"EPHEMERIS_TYPE":0,"CLASSIFICATION_TYPE":"U","NORAD_CAT_ID":55154,"ELEMENT_SET_NO":999,"REV_AT_EPOCH":15673,"BSTAR":-0.0019413,"MEAN_MOTION_DOT":-6.75e-06,"MEAN_MOTION_DDOT":0.0},{"OBJECT_NAME":"ONEWEB-0599","OBJECT_ID":"2023-004R","EPOCH":"2026-04-08T03:55:37.508448","MEAN_MOTION":13.17651032,"ECCENTRICITY":0.0002054,"INCLINATION":87.9182,"RA_OF_ASC_NODE":19.7727,"ARG_OF_PERICENTER":79.3814,"MEAN_ANOMALY":280.7549,"EPHEMERIS_TYPE":0,"CLASSIFICATION_TYPE":"U","NORAD_CAT_ID":55155,"ELEMENT_SET_NO":999,"REV_AT_EPOCH":15826,"BSTAR":0.00019774000000000001,"MEAN_MOTION_DOT":9e-07,"MEAN_MOTION_DDOT":0.0},{"OBJECT_NAME":"ONEWEB-0614","OBJECT_ID":"2023-004S","EPOCH":"2026-04-08T06:24:57.831264","MEAN_MOTION":13.11416951,"ECCENTRICITY":0.0001635,"INCLINATION":87.8907,"RA_OF_ASC_NODE":34.977,"ARG_OF_PERICENTER":81.3951,"MEAN_ANOMALY":278.7362,"EPHEMERIS_TYPE":0,"CLASSIFICATION_TYPE":"U","NORAD_CAT_ID":55156,"ELEMENT_SET_NO":999,"REV_AT_EPOCH":15667,"BSTAR":0.0014917,"MEAN_MOTION_DOT":5.41e-06,"MEAN_MOTION_DDOT":0.0},{"OBJECT_NAME":"ONEWEB-0616","OBJECT_ID":"2023-004T","EPOCH":"2026-04-08T04:56:22.153344","MEAN_MOTION":13.17651846,"ECCENTRICITY":0.0002705,"INCLINATION":87.9183,"RA_OF_ASC_NODE":19.7663,"ARG_OF_PERICENTER":89.3676,"MEAN_ANOMALY":270.7765,"EPHEMERIS_TYPE":0,"CLASSIFICATION_TYPE":"U","NORAD_CAT_ID":55157,"ELEMENT_SET_NO":999,"REV_AT_EPOCH":15848,"BSTAR":0.00019944,"MEAN_MOTION_DOT":9e-07,"MEAN_MOTION_DDOT":0.0},{"OBJECT_NAME":"ONEWEB-0617","OBJECT_ID":"2023-004U","EPOCH":"2026-04-08T06:07:52.440384","MEAN_MOTION":13.11419106,"ECCENTRICITY":0.000141,"INCLINATION":87.8923,"RA_OF_ASC_NODE":34.9658,"ARG_OF_PERICENTER":75.6745,"MEAN_ANOMALY":284.4539,"EPHEMERIS_TYPE":0,"CLASSIFICATION_TYPE":"U","NORAD_CAT_ID":55158,"ELEMENT_SET_NO":999,"REV_AT_EPOCH":15669,"BSTAR":0.00036522,"MEAN_MOTION_DOT":1.42e-06,"MEAN_MOTION_DDOT":0.0},{"OBJECT_NAME":"ONEWEB-0618","OBJECT_ID":"2023-004V","EPOCH":"2026-04-08T06:35:26.354976","MEAN_MOTION":15.12505622,"ECCENTRICITY":0.0012497,"INCLINATION":86.9133,"RA_OF_ASC_NODE":205.9829,"ARG_OF_PERICENTER":182.2147,"MEAN_ANOMALY":177.904,"EPHEMERIS_TYPE":0,"CLASSIFICATION_TYPE":"U","NORAD_CAT_ID":55159,"ELEMENT_SET_NO":999,"REV_AT_EPOCH":17169,"BSTAR":0.00034970000000000004,"MEAN_MOTION_DOT":6.129e-05,"MEAN_MOTION_DDOT":0.0},{"OBJECT_NAME":"ONEWEB-0619","OBJECT_ID":"2023-004W","EPOCH":"2026-04-08T05:42:32.147712","MEAN_MOTION":13.17647768,"ECCENTRICITY":0.0001695,"INCLINATION":87.9192,"RA_OF_ASC_NODE":19.7351,"ARG_OF_PERICENTER":93.3954,"MEAN_ANOMALY":266.7371,"EPHEMERIS_TYPE":0,"CLASSIFICATION_TYPE":"U","NORAD_CAT_ID":55160,"ELEMENT_SET_NO":999,"REV_AT_EPOCH":15838,"BSTAR":0.00012143,"MEAN_MOTION_DOT":6e-07,"MEAN_MOTION_DDOT":0.0},{"OBJECT_NAME":"ONEWEB-0620","OBJECT_ID":"2023-004X","EPOCH":"2026-04-08T06:00:32.446656","MEAN_MOTION":13.1141834,"ECCENTRICITY":0.0001875,"INCLINATION":87.8911,"RA_OF_ASC_NODE":34.98,"ARG_OF_PERICENTER":69.8427,"MEAN_ANOMALY":290.2902,"EPHEMERIS_TYPE":0,"CLASSIFICATION_TYPE":"U","NORAD_CAT_ID":55161,"ELEMENT_SET_NO":999,"REV_AT_EPOCH":15666,"BSTAR":-0.00032017,"MEAN_MOTION_DOT":-1.01e-06,"MEAN_MOTION_DDOT":0.0},{"OBJECT_NAME":"ONEWEB-0621","OBJECT_ID":"2023-004Y","EPOCH":"2026-04-08T04:49:44.531904","MEAN_MOTION":13.1141413,"ECCENTRICITY":0.0001645,"INCLINATION":87.8918,"RA_OF_ASC_NODE":34.9724,"ARG_OF_PERICENTER":82.7463,"MEAN_ANOMALY":277.3852,"EPHEMERIS_TYPE":0,"CLASSIFICATION_TYPE":"U","NORAD_CAT_ID":55162,"ELEMENT_SET_NO":999,"REV_AT_EPOCH":15663,"BSTAR":0.0012274,"MEAN_MOTION_DOT":4.48e-06,"MEAN_MOTION_DDOT":0.0},{"OBJECT_NAME":"ONEWEB-0622","OBJECT_ID":"2023-004Z","EPOCH":"2026-04-08T04:57:04.190400","MEAN_MOTION":13.11415267,"ECCENTRICITY":0.0001197,"INCLINATION":87.8916,"RA_OF_ASC_NODE":34.9732,"ARG_OF_PERICENTER":62.6637,"MEAN_ANOMALY":297.4613,"EPHEMERIS_TYPE":0,"CLASSIFICATION_TYPE":"U","NORAD_CAT_ID":55163,"ELEMENT_SET_NO":999,"REV_AT_EPOCH":15662,"BSTAR":0.00081764,"MEAN_MOTION_DOT":3.02e-06,"MEAN_MOTION_DDOT":0.0},{"OBJECT_NAME":"ONEWEB-0623","OBJECT_ID":"2023-004AA","EPOCH":"2026-04-08T05:35:16.062720","MEAN_MOTION":13.1765185,"ECCENTRICITY":0.0001079,"INCLINATION":87.9184,"RA_OF_ASC_NODE":19.7748,"ARG_OF_PERICENTER":91.5216,"MEAN_ANOMALY":268.604,"EPHEMERIS_TYPE":0,"CLASSIFICATION_TYPE":"U","NORAD_CAT_ID":55164,"ELEMENT_SET_NO":999,"REV_AT_EPOCH":15837,"BSTAR":0.00016508999999999998,"MEAN_MOTION_DOT":7.7e-07,"MEAN_MOTION_DDOT":0.0},{"OBJECT_NAME":"ONEWEB-0624","OBJECT_ID":"2023-004AB","EPOCH":"2026-04-08T03:48:36.311040","MEAN_MOTION":13.12926314,"ECCENTRICITY":0.0001591,"INCLINATION":87.9011,"RA_OF_ASC_NODE":4.5059,"ARG_OF_PERICENTER":82.3808,"MEAN_ANOMALY":277.7502,"EPHEMERIS_TYPE":0,"CLASSIFICATION_TYPE":"U","NORAD_CAT_ID":55165,"ELEMENT_SET_NO":999,"REV_AT_EPOCH":15888,"BSTAR":-0.00054657,"MEAN_MOTION_DOT":-1.85e-06,"MEAN_MOTION_DDOT":0.0},{"OBJECT_NAME":"ONEWEB-0625","OBJECT_ID":"2023-004AC","EPOCH":"2026-04-08T05:20:39.825888","MEAN_MOTION":13.17647548,"ECCENTRICITY":0.0001938,"INCLINATION":87.9181,"RA_OF_ASC_NODE":19.7706,"ARG_OF_PERICENTER":82.8554,"MEAN_ANOMALY":277.2798,"EPHEMERIS_TYPE":0,"CLASSIFICATION_TYPE":"U","NORAD_CAT_ID":55166,"ELEMENT_SET_NO":999,"REV_AT_EPOCH":15836,"BSTAR":0.00015418000000000002,"MEAN_MOTION_DOT":7.3e-07,"MEAN_MOTION_DDOT":0.0},{"OBJECT_NAME":"ONEWEB-0626","OBJECT_ID":"2023-004AD","EPOCH":"2026-04-08T05:06:06.603552","MEAN_MOTION":13.17650399,"ECCENTRICITY":0.0002033,"INCLINATION":87.9182,"RA_OF_ASC_NODE":19.7726,"ARG_OF_PERICENTER":66.7867,"MEAN_ANOMALY":293.3479,"EPHEMERIS_TYPE":0,"CLASSIFICATION_TYPE":"U","NORAD_CAT_ID":55167,"ELEMENT_SET_NO":999,"REV_AT_EPOCH":15836,"BSTAR":0.00026194,"MEAN_MOTION_DOT":1.15e-06,"MEAN_MOTION_DDOT":0.0},{"OBJECT_NAME":"ONEWEB-0627","OBJECT_ID":"2023-004AE","EPOCH":"2026-04-08T04:49:04.400832","MEAN_MOTION":13.17648713,"ECCENTRICITY":0.0001327,"INCLINATION":87.9185,"RA_OF_ASC_NODE":19.775,"ARG_OF_PERICENTER":86.0778,"MEAN_ANOMALY":274.0506,"EPHEMERIS_TYPE":0,"CLASSIFICATION_TYPE":"U","NORAD_CAT_ID":55168,"ELEMENT_SET_NO":999,"REV_AT_EPOCH":15836,"BSTAR":0.00018108,"MEAN_MOTION_DOT":8.3e-07,"MEAN_MOTION_DDOT":0.0},{"OBJECT_NAME":"ONEWEB-0628","OBJECT_ID":"2023-004AF","EPOCH":"2026-04-08T04:34:27.064128","MEAN_MOTION":13.12442433,"ECCENTRICITY":0.0001227,"INCLINATION":87.9013,"RA_OF_ASC_NODE":4.5542,"ARG_OF_PERICENTER":96.745,"MEAN_ANOMALY":263.3818,"EPHEMERIS_TYPE":0,"CLASSIFICATION_TYPE":"U","NORAD_CAT_ID":55169,"ELEMENT_SET_NO":999,"REV_AT_EPOCH":15885,"BSTAR":0.00081155,"MEAN_MOTION_DOT":3.05e-06,"MEAN_MOTION_DDOT":0.0}]